RADARSAT-2              
1 32382U 07061A   26204.28271815  .00000104  00000+0  57179-4 0  9997
2 32382  98.5795 210.7005 0001320  86.4441 273.6892 14.29980953971117
